{"type": "FeatureCollection", "features": [ {"type": "Feature", "properties": {"norad_id": 43437, "name": "SENTINEL-3B", "group": "resource", "lat": 18.037190376129278, "lon": 63.8617709706303, "alt_km": 802.5452616153716, "timestamp": "2025-12-27T17:24:57.051155+00:00", "meta": {"OBJECT_NAME": "SENTINEL-3B", "OBJECT_ID": "2018-039A", "EPOCH": "2025-12-27T10:35:53.212704", "MEAN_MOTION": 14.26739705, "ECCENTRICITY": 0.0001552, "INCLINATION": 98.6248, "RA_OF_ASC_NODE": 66.4148, "ARG_OF_PERICENTER": 87.0448, "MEAN_ANOMALY": 273.091, "EPHEMERIS_TYPE": 0, "CLASSIFICATION_TYPE": "U", "NORAD_CAT_ID": 43437, "ELEMENT_SET_NO": 999, "REV_AT_EPOCH": 39963, "BSTAR": 7.8545e-05, "MEAN_MOTION_DOT": 1.46e-06, "MEAN_MOTION_DDOT": 0}, "tle": {"line1": "1 43437U 18039A   25361.44158811  .00000146  00000+0  78545-4 0  9994", "line2": "2 43437  98.6248  66.4148 0001552  87.0448 273.0910 14.26739705399639"}}, "geometry": {"type": "Point", "coordinates": [63.8617709706303, 18.037190376129278]}}, {"type": "Feature", "properties": {"norad_id": 43461, "name": "GAOFEN-5 01", "group": "resource", "lat": 21.48408122820183, "lon": -38.39185685699158, "alt_km": 692.0375523604398, "timestamp": "2025-12-27T17:24:57.051165+00:00", "meta": {"OBJECT_NAME": "GAOFEN-5 01", "OBJECT_ID": "2018-043A", "EPOCH": "2025-12-27T10:44:21.598080", "MEAN_MOTION": 14.60425697, "ECCENTRICITY": 6.23e-05, "INCLINATION": 98.4348, "RA_OF_ASC_NODE": 324.6732, "ARG_OF_PERICENTER": 221.3673, "MEAN_ANOMALY": 138.7479, "EPHEMERIS_TYPE": 0, "CLASSIFICATION_TYPE": "U", "NORAD_CAT_ID": 43461, "ELEMENT_SET_NO": 999, "REV_AT_EPOCH": 40662, "BSTAR": 0.00012286, "MEAN_MOTION_DOT": 5.46e-06, "MEAN_MOTION_DDOT": 0}, "tle": {"line1": "1 43461U 18043A   25361.44747220  .00000546  00000+0  12286-3 0  9997", "line2": "2 43461  98.4348 324.6732 0000623 221.3673 138.7479 14.60425697406629"}}, "geometry": {"type": "Point", "coordinates": [-38.39185685699158, 21.48408122820183]}}, {"type": "Feature", "properties": {"norad_id": 43484, "name": "GAOFEN-6", "group": "resource", "lat": 12.49580182941761, "lon": -112.77112255403438, "alt_km": 648.7581296717262, "timestamp": "2025-12-27T17:24:57.051175+00:00", "meta": {"OBJECT_NAME": "GAOFEN-6", "OBJECT_ID": "2018-048A", "EPOCH": "2025-12-27T11:46:56.013312", "MEAN_MOTION": 14.7659486, "ECCENTRICITY": 0.0012394, "INCLINATION": 97.8008, "RA_OF_ASC_NODE": 65.2611, "ARG_OF_PERICENTER": 19.5582, "MEAN_ANOMALY": 340.6102, "EPHEMERIS_TYPE": 0, "CLASSIFICATION_TYPE": "U", "NORAD_CAT_ID": 43484, "ELEMENT_SET_NO": 999, "REV_AT_EPOCH": 40805, "BSTAR": 0.00023495, "MEAN_MOTION_DOT": 1.593e-05, "MEAN_MOTION_DDOT": 0}, "tle": {"line1": "1 43484U 18048A   25361.49092608  .00001593  00000+0  23495-3 0  9992", "line2": "2 43484  97.8008  65.2611 0012394  19.5582 340.6102 14.76594860408050"}}, "geometry": {"type": "Point", "coordinates": [-112.77112255403438, 12.49580182941761]}}, {"type": "Feature", "properties": {"norad_id": 43585, "name": "GAOFEN-11 01", "group": "resource", "lat": -61.90437881760345, "lon": 78.14432019863511, "alt_km": 423.671811577713, "timestamp": "2025-12-27T17:24:57.051186+00:00", "meta": {"OBJECT_NAME": "GAOFEN-11 01", "OBJECT_ID": "2018-063A", "EPOCH": "2025-12-27T13:02:13.312896", "MEAN_MOTION": 15.4964995, "ECCENTRICITY": 0.0003909, "INCLINATION": 97.1536, "RA_OF_ASC_NODE": 64.3561, "ARG_OF_PERICENTER": 236.6319, "MEAN_ANOMALY": 123.4559, "EPHEMERIS_TYPE": 0, "CLASSIFICATION_TYPE": "U", "NORAD_CAT_ID": 43585, "ELEMENT_SET_NO": 999, "REV_AT_EPOCH": 41371, "BSTAR": 0.00039577, "MEAN_MOTION_DOT": 0.00021852, "MEAN_MOTION_DDOT": 0}, "tle": {"line1": "1 43585U 18063A   25361.54320964  .00021852  00000+0  39577-3 0  9994", "line2": "2 43585  97.1536  64.3561 0003909 236.6319 123.4559 15.49649950413711"}}, "geometry": {"type": "Point", "coordinates": [78.14432019863511, -61.90437881760345]}}, {"type": "Feature", "properties": {"norad_id": 43613, "name": "ICESAT-2", "group": "resource", "lat": -30.52534578560109, "lon": -114.03571687322157, "alt_km": 488.70859433450914, "timestamp": "2025-12-27T17:24:57.051196+00:00", "meta": {"OBJECT_NAME": "ICESAT-2", "OBJECT_ID": "2018-070A", "EPOCH": "2025-12-27T11:15:48.301920", "MEAN_MOTION": 15.28298663, "ECCENTRICITY": 0.0003278, "INCLINATION": 92.0037, "RA_OF_ASC_NODE": 244.7123, "ARG_OF_PERICENTER": 107.9678, "MEAN_ANOMALY": 252.1929, "EPHEMERIS_TYPE": 0, "CLASSIFICATION_TYPE": "U", "NORAD_CAT_ID": 43613, "ELEMENT_SET_NO": 999, "REV_AT_EPOCH": 40623, "BSTAR": 0.00047945, "MEAN_MOTION_DOT": 0.00013218, "MEAN_MOTION_DDOT": 0}, "tle": {"line1": "1 43613U 18070A   25361.46930905  .00013218  00000+0  47945-3 0  9992", "line2": "2 43613  92.0037 244.7123 0003278 107.9678 252.1929 15.28298663406236"}}, "geometry": {"type": "Point", "coordinates": [-114.03571687322157, -30.52534578560109]}}, {"type": "Feature", "properties": {"norad_id": 43719, "name": "HYSIS", "group": "resource", "lat": -44.40607720758078, "lon": 72.55387156735252, "alt_km": 640.2666713929539, "timestamp": "2025-12-27T17:24:57.051206+00:00", "meta": {"OBJECT_NAME": "HYSIS", "OBJECT_ID": "2018-096A", "EPOCH": "2025-12-27T11:07:21.405216", "MEAN_MOTION": 14.78684832, "ECCENTRICITY": 7.33e-05, "INCLINATION": 98.0074, "RA_OF_ASC_NODE": 64.3679, "ARG_OF_PERICENTER": 54.0878, "MEAN_ANOMALY": 306.0401, "EPHEMERIS_TYPE": 0, "CLASSIFICATION_TYPE": "U", "NORAD_CAT_ID": 43719, "ELEMENT_SET_NO": 999, "REV_AT_EPOCH": 38204, "BSTAR": 0.00020809, "MEAN_MOTION_DOT": 1.474e-05, "MEAN_MOTION_DDOT": 0}, "tle": {"line1": "1 43719U 18096A   25361.46344219  .00001474  00000+0  20809-3 0  9995", "line2": "2 43719  98.0074  64.3679 0000733  54.0878 306.0401 14.78684832382046"}}, "geometry": {"type": "Point", "coordinates": [72.55387156735252, -44.40607720758078]}}, {"type": "Feature", "properties": {"norad_id": 43783, "name": "KAZSTSAT", "group": "resource", "lat": -45.32367328002119, "lon": -151.34232040015846, "alt_km": 572.0648661090299, "timestamp": "2025-12-27T17:24:57.051217+00:00", "meta": {"OBJECT_NAME": "KAZSTSAT", "OBJECT_ID": "2018-099AB", "EPOCH": "2025-12-27T08:24:11.645856", "MEAN_MOTION": 14.99376905, "ECCENTRICITY": 0.0006477, "INCLINATION": 97.4507, "RA_OF_ASC_NODE": 35.9041, "ARG_OF_PERICENTER": 265.2413, "MEAN_ANOMALY": 94.8071, "EPHEMERIS_TYPE": 0, "CLASSIFICATION_TYPE": "U", "NORAD_CAT_ID": 43783, "ELEMENT_SET_NO": 999, "REV_AT_EPOCH": 38555, "BSTAR": 8.2885e-05, "MEAN_MOTION_DOT": 9.58e-06, "MEAN_MOTION_DDOT": 0}, "tle": {"line1": "1 43783U 18099AB  25361.35013479  .00000958  00000+0  82885-4 0  9997", "line2": "2 43783  97.4507  35.9041 0006477 265.2413  94.8071 14.99376905385556"}}, "geometry": {"type": "Point", "coordinates": [-151.34232040015846, -45.32367328002119]}}, {"type": "Feature", "properties": {"norad_id": 43831, "name": "SAUDISAT 5A", "group": "resource", "lat": -77.16864041834094, "lon": -152.8032106403512, "alt_km": 500.37655933282895, "timestamp": "2025-12-27T17:24:57.051247+00:00", "meta": {"OBJECT_NAME": "SAUDISAT 5A", "OBJECT_ID": "2018-102A", "EPOCH": "2025-12-27T13:08:03.230304", "MEAN_MOTION": 15.25841042, "ECCENTRICITY": 0.0010867, "INCLINATION": 97.3332, "RA_OF_ASC_NODE": 61.4522, "ARG_OF_PERICENTER": 29.8113, "MEAN_ANOMALY": 330.3742, "EPHEMERIS_TYPE": 0, "CLASSIFICATION_TYPE": "U", "NORAD_CAT_ID": 43831, "ELEMENT_SET_NO": 999, "REV_AT_EPOCH": 38948, "BSTAR": 0.00026589, "MEAN_MOTION_DOT": 6.744e-05, "MEAN_MOTION_DDOT": 0}, "tle": {"line1": "1 43831U 18102A   25361.54725961  .00006744  00000+0  26589-3 0  9990", "line2": "2 43831  97.3332  61.4522 0010867  29.8113 330.3742 15.25841042389480"}}, "geometry": {"type": "Point", "coordinates": [-152.8032106403512, -77.16864041834094]}}, {"type": "Feature", "properties": {"norad_id": 43833, "name": "SAUDISAT 5B", "group": "resource", "lat": -29.411242300420007, "lon": 68.56129673933127, "alt_km": 489.30953667907033, "timestamp": "2025-12-27T17:24:57.051261+00:00", "meta": {"OBJECT_NAME": "SAUDISAT 5B", "OBJECT_ID": "2018-102C", "EPOCH": "2025-12-27T12:49:29.072064", "MEAN_MOTION": 15.26185639, "ECCENTRICITY": 0.0011627, "INCLINATION": 97.3426, "RA_OF_ASC_NODE": 64.2047, "ARG_OF_PERICENTER": 31.8241, "MEAN_ANOMALY": 328.3698, "EPHEMERIS_TYPE": 0, "CLASSIFICATION_TYPE": "U", "NORAD_CAT_ID": 43833, "ELEMENT_SET_NO": 999, "REV_AT_EPOCH": 38959, "BSTAR": 0.00027492, "MEAN_MOTION_DOT": 7.05e-05, "MEAN_MOTION_DDOT": 0}, "tle": {"line1": "1 43833U 18102C   25361.53436426  .00007050  00000+0  27492-3 0  9991", "line2": "2 43833  97.3426  64.2047 0011627  31.8241 328.3698 15.26185639389592"}}, "geometry": {"type": "Point", "coordinates": [68.56129673933127, -29.411242300420007]}}, {"type": "Feature", "properties": {"norad_id": 44622, "name": "GAOFEN-10R", "group": "resource", "lat": 74.48099597336385, "lon": 159.8471748610877, "alt_km": 614.5543603613378, "timestamp": "2025-12-27T17:24:57.051273+00:00", "meta": {"OBJECT_NAME": "GAOFEN-10R", "OBJECT_ID": "2019-066A", "EPOCH": "2025-12-27T12:05:36.741408", "MEAN_MOTION": 14.82843505, "ECCENTRICITY": 0.0006775, "INCLINATION": 98.0296, "RA_OF_ASC_NODE": 309.0697, "ARG_OF_PERICENTER": 358.0922, "MEAN_ANOMALY": 2.0264, "EPHEMERIS_TYPE": 0, "CLASSIFICATION_TYPE": "U", "NORAD_CAT_ID": 44622, "ELEMENT_SET_NO": 999, "REV_AT_EPOCH": 33693, "BSTAR": 0.00024494, "MEAN_MOTION_DOT": 1.929e-05, "MEAN_MOTION_DDOT": 0}, "tle": {"line1": "1 44622U 19066A   25361.50389747  .00001929  00000+0  24494-3 0  9996", "line2": "2 44622  98.0296 309.0697 0006775 358.0922   2.0264 14.82843505336930"}}, "geometry": {"type": "Point", "coordinates": [159.8471748610877, 74.48099597336385]}}]}